{
  "type": "FeatureCollection",
  "features": [
    {
      "type": "Feature",
      "properties": {
        "norad_id": 38006,
        "name": "COSMOS 2251 DEB",
        "group": "cosmos-2251-debris",
        "lat": -15.139974518357148,
        "lon": -143.2035683804895,
        "alt_km": 784.5736983321385,
        "timestamp": "2025-12-15T19:00:45.756789+00:00",
        "meta_object_name": "COSMOS 2251 DEB",
        "meta_object_id": "1993-036BRH",
        "meta_epoch": "2025-12-10T03:36:37.956384",
        "meta_mean_motion": 14.45867865,
        "meta_eccentricity": 0.00758537,
        "meta_inclination": 73.8744,
        "meta_ra_of_asc_node": 42.933,
        "meta_arg_of_pericenter": 348.3853,
        "meta_mean_anomaly": 11.555,
        "meta_ephemeris_type": 0,
        "meta_classification_type": "U",
        "meta_norad_cat_id": 38006,
        "meta_element_set_no": 999,
        "meta_rev_at_epoch": 62922,
        "meta_bstar": 0.0047338847,
        "meta_mean_motion_dot": 0.00017443,
        "meta_mean_motion_ddot": 0,
        "tle_line1": "1 38006U 93036BRH 25344.15043931  .00017443  00000+0  47339-2 0  9998",
        "tle_line2": "2 38006  73.8744  42.9330 0075853 348.3853  11.5550 14.45867865629227"
      },
      "geometry": {
        "type": "Point",
        "coordinates": [
          -143.2035683804895,
          -15.139974518357148
        ]
      }
    },
    {
      "type": "Feature",
      "properties": {
        "norad_id": 38054,
        "name": "COSMOS 2251 DEB",
        "group": "cosmos-2251-debris",
        "lat": 63.41971913626741,
        "lon": 45.69360865091105,
        "alt_km": 1173.7575050448913,
        "timestamp": "2025-12-15T19:00:45.756799+00:00",
        "meta_object_name": "COSMOS 2251 DEB",
        "meta_object_id": "1993-036BRL",
        "meta_epoch": "2025-12-14T19:50:09.606048",
        "meta_mean_motion": 13.62358746,
        "meta_eccentricity": 0.03586138,
        "meta_inclination": 73.9562,
        "meta_ra_of_asc_node": 262.3801,
        "meta_arg_of_pericenter": 240.0913,
        "meta_mean_anomaly": 180.1967,
        "meta_ephemeris_type": 0,
        "meta_classification_type": "U",
        "meta_norad_cat_id": 38054,
        "meta_element_set_no": 999,
        "meta_rev_at_epoch": 67208,
        "meta_bstar": 0.0020981509,
        "meta_mean_motion_dot": 2.48e-05,
        "meta_mean_motion_ddot": 0,
        "tle_line1": "1 38054U 93036BRL 25348.82650007  .00002480  00000+0  20982-2 0  9997",
        "tle_line2": "2 38054  73.9562 262.3801 0358613 240.0913 180.1967 13.62358746672081"
      },
      "geometry": {
        "type": "Point",
        "coordinates": [
          45.69360865091105,
          63.41971913626741
        ]
      }
    },
    {
      "type": "Feature",
      "properties": {
        "norad_id": 38055,
        "name": "COSMOS 2251 DEB",
        "group": "cosmos-2251-debris",
        "lat": -42.68537977161035,
        "lon": 36.099771453719434,
        "alt_km": 655.0462661539486,
        "timestamp": "2025-12-15T19:00:45.756810+00:00",
        "meta_object_name": "COSMOS 2251 DEB",
        "meta_object_id": "1993-036BRM",
        "meta_epoch": "2025-12-14T22:46:42.153600",
        "meta_mean_motion": 14.77004867,
        "meta_eccentricity": 0.00658572,
        "meta_inclination": 74.0091,
        "meta_ra_of_asc_node": 202.4184,
        "meta_arg_of_pericenter": 329.4708,
        "meta_mean_anomaly": 94.9571,
        "meta_ephemeris_type": 0,
        "meta_classification_type": "U",
        "meta_norad_cat_id": 38055,
        "meta_element_set_no": 999,
        "meta_rev_at_epoch": 60715,
        "meta_bstar": 0.00052350473,
        "meta_mean_motion_dot": 3.79e-05,
        "meta_mean_motion_ddot": 0,
        "tle_line1": "1 38055U 93036BRM 25348.94909900  .00003790  00000+0  52350-3 0  9990",
        "tle_line2": "2 38055  74.0091 202.4184 0065857 329.4708  94.9571 14.77004867607157"
      },
      "geometry": {
        "type": "Point",
        "coordinates": [
          36.099771453719434,
          -42.68537977161035
        ]
      }
    },
    {
      "type": "Feature",
      "properties": {
        "norad_id": 38060,
        "name": "COSMOS 2251 DEB",
        "group": "cosmos-2251-debris",
        "lat": -51.501846136923014,
        "lon": -91.63613732067508,
        "alt_km": 686.400742016539,
        "timestamp": "2025-12-15T19:00:45.756820+00:00",
        "meta_object_name": "COSMOS 2251 DEB",
        "meta_object_id": "1993-036BRS",
        "meta_epoch": "2025-12-14T13:44:13.433280",
        "meta_mean_motion": 14.6387097,
        "meta_eccentricity": 0.00581615,
        "meta_inclination": 74.0426,
        "meta_ra_of_asc_node": 291.7883,
        "meta_arg_of_pericenter": 37.3523,
        "meta_mean_anomaly": 323.1666,
        "meta_ephemeris_type": 0,
        "meta_classification_type": "U",
        "meta_norad_cat_id": 38060,
        "meta_element_set_no": 999,
        "meta_rev_at_epoch": 71991,
        "meta_bstar": 0.000606294,
        "meta_mean_motion_dot": 3.217e-05,
        "meta_mean_motion_ddot": 0,
        "tle_line1": "1 38060U 93036BRS 25348.57237770  .00003217  00000+0  60629-3 0  9996",
        "tle_line2": "2 38060  74.0426 291.7883 0058161  37.3523 323.1666 14.63870970719913"
      },
      "geometry": {
        "type": "Point",
        "coordinates": [
          -91.63613732067508,
          -51.501846136923014
        ]
      }
    },
    {
      "type": "Feature",
      "properties": {
        "norad_id": 38062,
        "name": "COSMOS 2251 DEB",
        "group": "cosmos-2251-debris",
        "lat": -68.72637377035872,
        "lon": 151.74808892157205,
        "alt_km": 596.9548411117503,
        "timestamp": "2025-12-15T19:00:45.756830+00:00",
        "meta_object_name": "COSMOS 2251 DEB",
        "meta_object_id": "1993-036BRU",
        "meta_epoch": "2025-12-12T07:01:37.512192",
        "meta_mean_motion": 14.94806818,
        "meta_eccentricity": 0.00123829,
        "meta_inclination": 74.0077,
        "meta_ra_of_asc_node": 291.3712,
        "meta_arg_of_pericenter": 60.6656,
        "meta_mean_anomaly": 90.0551,
        "meta_ephemeris_type": 0,
        "meta_classification_type": "U",
        "meta_norad_cat_id": 38062,
        "meta_element_set_no": 999,
        "meta_rev_at_epoch": 63023,
        "meta_bstar": 0.0035861639,
        "meta_mean_motion_dot": 0.00039272,
        "meta_mean_motion_ddot": 0,
        "tle_line1": "1 38062U 93036BRU 25346.29279528  .00039272  00000+0  35862-2 0  9992",
        "tle_line2": "2 38062  74.0077 291.3712 0012382  60.6656  90.0551 14.94806818630239"
      },
      "geometry": {
        "type": "Point",
        "coordinates": [
          151.74808892157205,
          -68.72637377035872
        ]
      }
    },
    {
      "type": "Feature",
      "properties": {
        "norad_id": 38064,
        "name": "COSMOS 2251 DEB",
        "group": "cosmos-2251-debris",
        "lat": 64.7971310639339,
        "lon": -99.16149598298952,
        "alt_km": 718.7821627261346,
        "timestamp": "2025-12-15T19:00:45.756841+00:00",
        "meta_object_name": "COSMOS 2251 DEB",
        "meta_object_id": "1993-036BRW",
        "meta_epoch": "2025-12-14T19:25:31.855872",
        "meta_mean_motion": 14.56322696,
        "meta_eccentricity": 0.00473862,
        "meta_inclination": 74.0219,
        "meta_ra_of_asc_node": 120.2071,
        "meta_arg_of_pericenter": 239.4824,
        "meta_mean_anomaly": 120.1657,
        "meta_ephemeris_type": 0,
        "meta_classification_type": "U",
        "meta_norad_cat_id": 38064,
        "meta_element_set_no": 999,
        "meta_rev_at_epoch": 71895,
        "meta_bstar": 0.00096487043,
        "meta_mean_motion_dot": 4.313e-05,
        "meta_mean_motion_ddot": 0,
        "tle_line1": "1 38064U 93036BRW 25348.80939648  .00004313  00000+0  96487-3 0  9998",
        "tle_line2": "2 38064  74.0219 120.2071 0047386 239.4824 120.1657 14.56322696718955"
      },
      "geometry": {
        "type": "Point",
        "coordinates": [
          -99.16149598298952,
          64.7971310639339
        ]
      }
    },
    {
      "type": "Feature",
      "properties": {
        "norad_id": 38067,
        "name": "COSMOS 2251 DEB",
        "group": "cosmos-2251-debris",
        "lat": 34.25557432265257,
        "lon": 77.40578350121032,
        "alt_km": 685.355235599749,
        "timestamp": "2025-12-15T19:00:45.756851+00:00",
        "meta_object_name": "COSMOS 2251 DEB",
        "meta_object_id": "1993-036BRZ",
        "meta_epoch": "2025-12-14T13:35:01.091904",
        "meta_mean_motion": 14.61135602,
        "meta_eccentricity": 0.00694851,
        "meta_inclination": 74.0173,
        "meta_ra_of_asc_node": 271.0073,
        "meta_arg_of_pericenter": 58.167,
        "meta_mean_anomaly": 117.7661,
        "meta_ephemeris_type": 0,
        "meta_classification_type": "U",
        "meta_norad_cat_id": 38067,
        "meta_element_set_no": 999,
        "meta_rev_at_epoch": 62582,
        "meta_bstar": 0.00041702153,
        "meta_mean_motion_dot": 2.092e-05,
        "meta_mean_motion_ddot": 0,
        "tle_line1": "1 38067U 93036BRZ 25348.56598486  .00002092  00000+0  41702-3 0  9997",
        "tle_line2": "2 38067  74.0173 271.0073 0069485  58.1670 117.7661 14.61135602625828"
      },
      "geometry": {
        "type": "Point",
        "coordinates": [
          77.40578350121032,
          34.25557432265257
        ]
      }
    }
  ]
}